     2.100          NAVIGATION                              RINEX VERSION / TYPE
fic2rin                                 10/02/2009 00:55:06 PGM / RUN BY / DATE
                                                            END OF HEADER
16 09 10  1  2  0  0.0  .722659751773D-05 -.397903932026D-11  .000000000000D+00
     .107000000000D+03 -.558750000000D+02  .445482841863D-08  .167604986083D+01
    -.280141830444D-05  .527775776573D-02  .415742397308D-05  .515362824821D+04
     .352800000000D+06 -.130385160446D-07  .155932293533D+01  .502914190292D-07
     .969197476337D+00  .303000000000D+03 -.272463423252D+00 -.818748389871D-08
    -.242152943785D-09  .100000000000D+01  .155100000000D+04  .000000000000D+00
     .240000000000D+01  .000000000000D+00 -.977888703346D-08  .107000000000D+03
     .345606000000D+06  .400000000000D+01
17 09 10  1  2  0  0.0  .893063843250D-04  .318323145621D-11  .000000000000D+00
     .760000000000D+02 -.339687500000D+02  .429589322691D-08  .540430041138D+00
    -.185146927834D-05  .468898157123D-02  .120885670185D-04  .515374870872D+04
     .352800000000D+06 -.204890966415D-07  .260223655378D+01  .126659870148D-06
     .960167566216D+00  .148406250000D+03 -.264686891457D+01 -.792211570220D-08
     .132148361653D-10  .100000000000D+01  .155100000000D+04  .000000000000D+00
     .340000000000D+01  .000000000000D+00 -.102445483208D-07  .760000000000D+02
     .345606000000D+06  .400000000000D+01
18 09 10  1  2  0  0.0  .167945399880D-04  .284217094304D-11  .000000000000D+00
     .580000000000D+02 -.390937500000D+02  .544165523821D-08  .187648398746D+01
    -.209547579288D-05  .109306091908D-01  .493973493576D-05  .515362730408D+04
     .352800000000D+06 -.268220901489D-06 -.157869782383D+01 -.670552253723D-07
     .940195599401D+00  .277687500000D+03 -.237213316114D+01 -.862928801591D-08
    -.338585532018D-09  .100000000000D+01  .155100000000D+04  .000000000000D+00
     .240000000000D+01  .000000000000D+00 -.107102096081D-07  .580000000000D+02
     .345606000000D+06  .400000000000D+01
19 09 10  1  2  0  0.0  .840146094561D-05 -.170530256582D-11  .000000000000D+00
     .190000000000D+02 -.322500000000D+02  .438303971405D-08 -.121845235526D+00
    -.166893005371D-05  .584490154870D-02  .111237168312D-04  .515366321754D+04
     .352800000000D+06  .856816768646D-07  .265791191992D+01 -.670552253723D-07
     .957893957454D+00  .162250000000D+03 -.240809030068D+00 -.801711965950D-08
     .432160858377D-10  .100000000000D+01  .155100000000D+04  .000000000000D+00
     .240000000000D+01  .000000000000D+00 -.149011611938D-07  .190000000000D+02
     .345606000000D+06  .400000000000D+01
20 09 10  1  2  0  0.0  .710296444595D-04 -.909494701773D-12  .000000000000D+00
     .810000000000D+02 -.275312500000D+02  .536093759028D-08  .205705842037D+01
    -.154227018356D-05  .385400780942D-02  .458396971226D-05  .515376104546D+04
     .352800000000D+06 -.428408384323D-07 -.163261423140D+01 -.707805156708D-07
     .939924969796D+00  .278468750000D+03  .131361552449D+01 -.851714048737D-08
    -.281083136812D-09  .100000000000D+01  .155100000000D+04  .000000000000D+00
     .240000000000D+01  .000000000000D+00 -.745058059692D-08  .810000000000D+02
     .345606000000D+06  .400000000000D+01
21 09 10  1  2  0  0.0 -.123810023069D-04 -.227373675443D-11  .000000000000D+00
     .260000000000D+02  .641250000000D+02  .526521931752D-08  .310222946040D+01
     .322051346302D-05  .155793436570D-01  .752694904804D-05  .515375135612D+04
     .352800000000D+06 -.130385160446D-06 -.263702286439D+01 -.221654772758D-06
     .933776386552D+00  .222781250000D+03 -.255608371202D+01 -.819426989566D-08
     .501806616545D-09  .100000000000D+01  .155100000000D+04  .000000000000D+00
     .240000000000D+01  .000000000000D+00 -.121071934700D-07  .260000000000D+02
     .345606000000D+06  .400000000000D+01
22 09 10  1  2  0  0.0  .189755111933D-03 -.682121026330D-12  .000000000000D+00
     .550000000000D+02 -.361250000000D+02  .560273337633D-08  .852025355602D+00
    -.183656811714D-05  .534545979463D-02  .469945371151D-05  .515365562630D+04
     .352800000000D+06 -.502914190292D-07 -.157327355181D+01  .353902578354D-07
     .937867461830D+00  .279281250000D+03 -.188529305254D+01 -.877929426427D-08
    -.327870799992D-09  .100000000000D+01  .155100000000D+04  .000000000000D+00
     .240000000000D+01  .000000000000D+00 -.176951289177D-07  .550000000000D+02
     .345606000000D+06  .400000000000D+01
23 09 10  1  2  0  0.0  .388022512197D-03 -.454747350886D-12  .000000000000D+00
     .760000000000D+02 -.812500000000D+00  .412160025262D-08 -.623288912154D+00
    -.184401869774D-06  .639962172136D-02  .110361725092D-04  .515377046204D+04
     .352800000000D+06  .800937414169D-07 -.551860437442D+00 -.109896063805D-06
     .969841593315D+00  .173156250000D+03  .298014156041D+01 -.781746848608D-08
    -.278225874939D-09  .100000000000D+01  .155100000000D+04  .000000000000D+00
     .240000000000D+01  .000000000000D+00 -.200234353542D-07  .760000000000D+02
     .345606000000D+06  .400000000000D+01
25 09 10  1  2  0  0.0  .614674761891D-03  .142108547152D-10  .000000000000D+00
     .620000000000D+02  .751875000000D+02  .416624496940D-08  .231381812610D+01
     .391341745853D-05  .112334155710D-01  .695139169693D-05  .515364206123D+04
     .352800000000D+06  .134110450745D-06  .395048595428D+00  .949949026108D-07
     .971278124741D+00  .247750000000D+03 -.121329769758D+01 -.779746765297D-08
     .230366738556D-09  .100000000000D+01  .155100000000D+04  .000000000000D+00
     .340000000000D+01  .000000000000D+00 -.745058059692D-08  .620000000000D+02
     .345606000000D+06  .400000000000D+01
26 09 10  1  2  0  0.0  .956933945417D-05 -.113686837722D-11  .000000000000D+00
     .360000000000D+02  .312500000000D+00  .355514808619D-08 -.278946262066D+01
    -.111758708954D-07  .196682987735D-01  .119004398584D-04  .515361460114D+04
     .352800000000D+06  .283122062683D-06 -.499479268768D+00 -.203028321266D-06
     .992330551648D+00  .161375000000D+03  .103019639844D+01 -.728351767346D-08
    -.169649923743D-09  .100000000000D+01  .155100000000D+04  .000000000000D+00
     .240000000000D+01  .000000000000D+00 -.605359673500D-08  .360000000000D+02
     .345606000000D+06  .400000000000D+01
27 09 10  1  2  0  0.0  .873194076121D-04  .329691829393D-11  .000000000000D+00
     .720000000000D+02  .715000000000D+02  .422874757288D-08  .136971100413D+00
     .392086803913D-05  .213750085095D-01  .762753188610D-05  .515373187065D+04
     .352800000000D+06 -.413507223129D-06  .431850163470D+00 -.132247805595D-06
     .976032245695D+00  .247593750000D+03 -.153983181213D+01 -.834749056363D-08
     .274654297597D-09  .100000000000D+01  .155100000000D+04  .000000000000D+00
     .340000000000D+01  .000000000000D+00 -.419095158577D-08  .720000000000D+02
     .345606000000D+06  .400000000000D+01
28 09 10  1  2  0  0.0 -.260504893959D-04  .113686837722D-12  .000000000000D+00
     .690000000000D+02 -.570000000000D+02  .463912180947D-08  .109867354857D+01
    -.302121043205D-05  .151360038435D-01  .483356416225D-05  .515365144730D+04
     .352800000000D+06 -.264495611191D-06  .156735712928D+01  .391155481339D-07
     .967410093268D+00  .293218750000D+03 -.201663851172D+01 -.851892627605D-08
    -.334656796942D-09  .100000000000D+01  .155100000000D+04  .000000000000D+00
     .340000000000D+01  .000000000000D+00 -.102445483208D-07  .690000000000D+02
     .345606000000D+06  .400000000000D+01
30 09 10  1  2  0  0.0  .181220937520D-03  .306954461848D-11  .000000000000D+00
     .120000000000D+02 -.532500000000D+02  .489698969356D-08  .157772315027D+01
    -.301934778690D-05  .119308062131D-01  .340305268764D-05  .515366456795D+04
     .352800000000D+06  .372529029846D-08  .149237312726D+01 -.258907675743D-06
     .952964286330D+00  .310375000000D+03  .145927759153D+01 -.854642742158D-08
    -.173221501085D-09  .100000000000D+01  .155100000000D+04  .000000000000D+00
     .240000000000D+01  .000000000000D+00 -.791624188423D-08  .120000000000D+02
     .345606000000D+06  .400000000000D+01
31 09 10  1  2  0  0.0 -.636395998299D-04  .568434188608D-12  .000000000000D+00
     .750000000000D+02  .739687500000D+02  .422196157593D-08 -.241730861856D+01
     .384822487831D-05  .706954789348D-02  .655837357044D-05  .515379637718D+04
     .352800000000D+06  .800937414169D-07  .487749597460D+00  .109896063805D-06
     .974418911842D+00  .262281250000D+03 -.114019765317D+01 -.791997275580D-08
     .281440294547D-09  .100000000000D+01  .155100000000D+04  .000000000000D+00
     .240000000000D+01  .000000000000D+00 -.130385160446D-07  .750000000000D+02
     .345606000000D+06  .400000000000D+01
32 09 10  1  2  0  0.0  .186515040696D-03 -.727595761418D-11  .000000000000D+00
     .440000000000D+02 -.318750000000D+02  .486555981295D-08 -.149359349206D+01
    -.156648457050D-05  .132681281539D-01  .579096376896D-05  .515370235634D+04
     .352800000000D+06 -.394880771637D-06 -.152031178460D+01  .931322574615D-07
     .961906741745D+00  .270343750000D+03 -.111052488785D+01 -.840106422376D-08
    -.351443210449D-09  .100000000000D+01  .155100000000D+04  .000000000000D+00
     .240000000000D+01  .000000000000D+00 -.325962901115D-08  .440000000000D+02
     .345606000000D+06  .400000000000D+01
24 09 10  1  4  0  0.0  .224863179028D-03  .306954461848D-11  .000000000000D+00
     .242000000000D+03  .654062500000D+02  .495199198463D-08  .281420177521D+01
     .340305268764D-05  .641966634430D-02  .706873834133D-05  .515366745758D+04
     .360000000000D+06  .186264514923D-08 -.260280108216D+01  .329688191414D-06
     .950379497338D+00  .233218750000D+03 -.615340990874D+00 -.826355849609D-08
     .499663670140D-09  .100000000000D+01  .155100000000D+04  .000000000000D+00
     .960000000000D+02  .630000000000D+02 -.139698386192D-08  .242000000000D+03
     .345606000000D+06  .800000000000D+01
